[{"OBJECT_NAME":"2023-091H","OBJECT_ID":"2023-091H","EPOCH":"2026-04-04T19:54:54.237888","MEAN_MOTION":15.27115549,"ECCENTRICITY":0.0010246,"INCLINATION":97.5113,"RA_OF_ASC_NODE":157.4919,"ARG_OF_PERICENTER":21.8049,"MEAN_ANOMALY":338.3623,"EPHEMERIS_TYPE":0,"CLASSIFICATION_TYPE":"U","NORAD_CAT_ID":57173,"ELEMENT_SET_NO":999,"REV_AT_EPOCH":15310,"BSTAR":0.00058751,"MEAN_MOTION_DOT":0.00015588,"MEAN_MOTION_DDOT":0},{"OBJECT_NAME":"2023-091J","OBJECT_ID":"2023-091J","EPOCH":"2026-04-04T19:27:05.778720","MEAN_MOTION":15.13444496,"ECCENTRICITY":0.0014468,"INCLINATION":97.5133,"RA_OF_ASC_NODE":148.9499,"ARG_OF_PERICENTER":47.0764,"MEAN_ANOMALY":313.1679,"EPHEMERIS_TYPE":0,"CLASSIFICATION_TYPE":"U","NORAD_CAT_ID":57174,"ELEMENT_SET_NO":999,"REV_AT_EPOCH":15253,"BSTAR":0.00032662,"MEAN_MOTION_DOT":5.787e-5,"MEAN_MOTION_DDOT":0},{"OBJECT_NAME":"CUBEBEL 2 (EU11S)","OBJECT_ID":"2023-091K","EPOCH":"2026-04-04T20:26:47.171904","MEAN_MOTION":15.27473408,"ECCENTRICITY":0.0010262,"INCLINATION":97.5114,"RA_OF_ASC_NODE":157.4865,"ARG_OF_PERICENTER":23.472,"MEAN_ANOMALY":336.6985,"EPHEMERIS_TYPE":0,"CLASSIFICATION_TYPE":"U","NORAD_CAT_ID":57175,"ELEMENT_SET_NO":999,"REV_AT_EPOCH":15310,"BSTAR":0.000635,"MEAN_MOTION_DOT":0.00017042,"MEAN_MOTION_DDOT":0},{"OBJECT_NAME":"SITRO-AIS 5 (KATYS)","OBJECT_ID":"2023-091L","EPOCH":"2026-04-04T19:39:31.507488","MEAN_MOTION":15.2784508,"ECCENTRICITY":0.0011463,"INCLINATION":97.5122,"RA_OF_ASC_NODE":158.0909,"ARG_OF_PERICENTER":9.7406,"MEAN_ANOMALY":350.4053,"EPHEMERIS_TYPE":0,"CLASSIFICATION_TYPE":"U","NORAD_CAT_ID":57176,"ELEMENT_SET_NO":999,"REV_AT_EPOCH":15313,"BSTAR":0.00055874,"MEAN_MOTION_DOT":0.00015158,"MEAN_MOTION_DDOT":0},{"OBJECT_NAME":"ZORKIY-2M 1","OBJECT_ID":"2023-091M","EPOCH":"2026-04-04T19:55:32.075904","MEAN_MOTION":15.19985349,"ECCENTRICITY":0.0013728,"INCLINATION":97.5162,"RA_OF_ASC_NODE":154.0543,"ARG_OF_PERICENTER":19.7017,"MEAN_ANOMALY":340.4745,"EPHEMERIS_TYPE":0,"CLASSIFICATION_TYPE":"U","NORAD_CAT_ID":57177,"ELEMENT_SET_NO":999,"REV_AT_EPOCH":15285,"BSTAR":0.00046997,"MEAN_MOTION_DOT":0.00010079,"MEAN_MOTION_DDOT":0},{"OBJECT_NAME":"CUBESX-HSE 3 (RS42S)","OBJECT_ID":"2023-091N","EPOCH":"2026-04-04T19:22:01.658496","MEAN_MOTION":15.29442528,"ECCENTRICITY":0.001058,"INCLINATION":97.515,"RA_OF_ASC_NODE":159.5483,"ARG_OF_PERICENTER":0.2973,"MEAN_ANOMALY":359.8271,"EPHEMERIS_TYPE":0,"CLASSIFICATION_TYPE":"U","NORAD_CAT_ID":57178,"ELEMENT_SET_NO":999,"REV_AT_EPOCH":15320,"BSTAR":0.00057073,"MEAN_MOTION_DOT":0.00016259,"MEAN_MOTION_DDOT":0},{"OBJECT_NAME":"MONITOR-3 (RS58S)","OBJECT_ID":"2023-091Q","EPOCH":"2026-04-04T19:25:48.859392","MEAN_MOTION":15.26426349,"ECCENTRICITY":0.001176,"INCLINATION":97.5146,"RA_OF_ASC_NODE":157.7754,"ARG_OF_PERICENTER":6.1556,"MEAN_ANOMALY":353.9824,"EPHEMERIS_TYPE":0,"CLASSIFICATION_TYPE":"U","NORAD_CAT_ID":57180,"ELEMENT_SET_NO":999,"REV_AT_EPOCH":15309,"BSTAR":0.0005437,"MEAN_MOTION_DOT":0.00014126,"MEAN_MOTION_DDOT":0},{"OBJECT_NAME":"MONITOR-4 (RS57S)","OBJECT_ID":"2023-091S","EPOCH":"2026-04-04T20:36:36.884736","MEAN_MOTION":15.26520484,"ECCENTRICITY":0.001165,"INCLINATION":97.514,"RA_OF_ASC_NODE":157.7913,"ARG_OF_PERICENTER":6.3987,"MEAN_ANOMALY":353.7398,"EPHEMERIS_TYPE":0,"CLASSIFICATION_TYPE":"U","NORAD_CAT_ID":57182,"ELEMENT_SET_NO":999,"REV_AT_EPOCH":15310,"BSTAR":0.00057228,"MEAN_MOTION_DOT":0.00014916,"MEAN_MOTION_DDOT":0},{"OBJECT_NAME":"MONITOR-2 (RS39S)","OBJECT_ID":"2023-091U","EPOCH":"2026-04-04T20:11:36.201408","MEAN_MOTION":15.18249533,"ECCENTRICITY":0.0011519,"INCLINATION":97.5142,"RA_OF_ASC_NODE":153.6078,"ARG_OF_PERICENTER":16.269,"MEAN_ANOMALY":343.8911,"EPHEMERIS_TYPE":0,"CLASSIFICATION_TYPE":"U","NORAD_CAT_ID":57184,"ELEMENT_SET_NO":999,"REV_AT_EPOCH":15282,"BSTAR":0.0003872,"MEAN_MOTION_DOT":7.876e-5,"MEAN_MOTION_DDOT":0},{"OBJECT_NAME":"SVYATOBOR 1 (RS60S)","OBJECT_ID":"2023-091X","EPOCH":"2026-04-04T19:31:39.349632","MEAN_MOTION":15.25406219,"ECCENTRICITY":0.0009205,"INCLINATION":97.5151,"RA_OF_ASC_NODE":158.2706,"ARG_OF_PERICENTER":0.3982,"MEAN_ANOMALY":359.7262,"EPHEMERIS_TYPE":0,"CLASSIFICATION_TYPE":"U","NORAD_CAT_ID":57187,"ELEMENT_SET_NO":999,"REV_AT_EPOCH":15312,"BSTAR":0.00049428,"MEAN_MOTION_DOT":0.00012435,"MEAN_MOTION_DDOT":0},{"OBJECT_NAME":"HORS 1","OBJECT_ID":"2023-091Y","EPOCH":"2026-04-04T20:51:44.570304","MEAN_MOTION":15.25488315,"ECCENTRICITY":0.0008716,"INCLINATION":97.5131,"RA_OF_ASC_NODE":158.0995,"ARG_OF_PERICENTER":0.4308,"MEAN_ANOMALY":359.6935,"EPHEMERIS_TYPE":0,"CLASSIFICATION_TYPE":"U","NORAD_CAT_ID":57188,"ELEMENT_SET_NO":999,"REV_AT_EPOCH":15313,"BSTAR":0.00052455,"MEAN_MOTION_DOT":0.00013233,"MEAN_MOTION_DDOT":0},{"OBJECT_NAME":"VIZARD-METEO (RS38S)","OBJECT_ID":"2023-091Z","EPOCH":"2026-04-04T20:50:50.167680","MEAN_MOTION":15.33794417,"ECCENTRICITY":0.0006488,"INCLINATION":97.5143,"RA_OF_ASC_NODE":162.9967,"ARG_OF_PERICENTER":341.7222,"MEAN_ANOMALY":18.3786,"EPHEMERIS_TYPE":0,"CLASSIFICATION_TYPE":"U","NORAD_CAT_ID":57189,"ELEMENT_SET_NO":999,"REV_AT_EPOCH":15344,"BSTAR":0.00065459,"MEAN_MOTION_DOT":0.00021361,"MEAN_MOTION_DDOT":0},{"OBJECT_NAME":"NANOZOND 1 (RS49S)","OBJECT_ID":"2023-091AA","EPOCH":"2026-04-04T19:26:22.044768","MEAN_MOTION":15.9243945,"ECCENTRICITY":0.0007072,"INCLINATION":97.4958,"RA_OF_ASC_NODE":177.435,"ARG_OF_PERICENTER":260.4226,"MEAN_ANOMALY":99.6248,"EPHEMERIS_TYPE":0,"CLASSIFICATION_TYPE":"U","NORAD_CAT_ID":57190,"ELEMENT_SET_NO":999,"REV_AT_EPOCH":15440,"BSTAR":0.0017131,"MEAN_MOTION_DOT":0.00576611,"MEAN_MOTION_DDOT":0.00013438},{"OBJECT_NAME":"SITRO-AIS 6 (CHIRKIN)","OBJECT_ID":"2023-091AC","EPOCH":"2026-04-04T20:03:23.195232","MEAN_MOTION":15.24838613,"ECCENTRICITY":0.0012289,"INCLINATION":97.513,"RA_OF_ASC_NODE":157.592,"ARG_OF_PERICENTER":13.0663,"MEAN_ANOMALY":347.0891,"EPHEMERIS_TYPE":0,"CLASSIFICATION_TYPE":"U","NORAD_CAT_ID":57192,"ELEMENT_SET_NO":999,"REV_AT_EPOCH":15310,"BSTAR":0.00037345,"MEAN_MOTION_DOT":9.223e-5,"MEAN_MOTION_DDOT":0},{"OBJECT_NAME":"SITRO-AIS 8 (ANOKHIN)","OBJECT_ID":"2023-091AD","EPOCH":"2026-04-04T19:50:31.348608","MEAN_MOTION":15.30244795,"ECCENTRICITY":0.0010496,"INCLINATION":97.5116,"RA_OF_ASC_NODE":159.4067,"ARG_OF_PERICENTER":6.854,"MEAN_ANOMALY":353.2842,"EPHEMERIS_TYPE":0,"CLASSIFICATION_TYPE":"U","NORAD_CAT_ID":57193,"ELEMENT_SET_NO":999,"REV_AT_EPOCH":15322,"BSTAR":0.00056909,"MEAN_MOTION_DOT":0.00016619,"MEAN_MOTION_DDOT":0},{"OBJECT_NAME":"SITRO-AIS 7 (FARTUSHNIY)","OBJECT_ID":"2023-091AE","EPOCH":"2026-04-04T19:47:36.841344","MEAN_MOTION":15.24563932,"ECCENTRICITY":0.0012203,"INCLINATION":97.5128,"RA_OF_ASC_NODE":157.4412,"ARG_OF_PERICENTER":14.0463,"MEAN_ANOMALY":346.1112,"EPHEMERIS_TYPE":0,"CLASSIFICATION_TYPE":"U","NORAD_CAT_ID":57194,"ELEMENT_SET_NO":999,"REV_AT_EPOCH":15309,"BSTAR":0.00035099,"MEAN_MOTION_DOT":8.592e-5,"MEAN_MOTION_DDOT":0}]
