2023-091H               
1 57173U 23091H   26094.82979442  .00015588  00000+0  58751-3 0  9999
2 57173  97.5113 157.4919 0010246  21.8049 338.3623 15.27115549153102
2023-091J               
1 57174U 23091J   26094.81048355  .00005787  00000+0  32662-3 0  9992
2 57174  97.5133 148.9499 0014468  47.0764 313.1679 15.13444496152536
CUBEBEL 2 (EU11S)       
1 57175U 23091K   26094.85193486  .00017042  00000+0  63500-3 0  9995
2 57175  97.5114 157.4865 0010262  23.4720 336.6985 15.27473408153100
SITRO-AIS 5 (KATYS)     
1 57176U 23091L   26094.81911467  .00015158  00000+0  55874-3 0  9990
2 57176  97.5122 158.0909 0011463   9.7406 350.4053 15.27845080153130
ZORKIY-2M 1             
1 57177U 23091M   26094.83023236  .00010079  00000+0  46997-3 0  9994
2 57177  97.5162 154.0543 0013728  19.7017 340.4745 15.19985349152859
CUBESX-HSE 3 (RS42S)    
1 57178U 23091N   26094.80696364  .00016259  00000+0  57073-3 0  9993
2 57178  97.5150 159.5483 0010580   0.2973 359.8271 15.29442528153205
MONITOR-3 (RS58S)       
1 57180U 23091Q   26094.80959328  .00014126  00000+0  54370-3 0  9996
2 57180  97.5146 157.7754 0011760   6.1556 353.9824 15.26426349153093
MONITOR-4 (RS57S)       
1 57182U 23091S   26094.85876024  .00014916  00000+0  57228-3 0  9996
2 57182  97.5140 157.7913 0011650   6.3987 353.7398 15.26520484153105
MONITOR-2 (RS39S)       
1 57184U 23091U   26094.84139122  .00007876  00000+0  38720-3 0  9991
2 57184  97.5142 153.6078 0011519  16.2690 343.8911 15.18249533152824
SVYATOBOR 1 (RS60S)     
1 57187U 23091X   26094.81364988  .00012435  00000+0  49428-3 0  9995
2 57187  97.5151 158.2706 0009205   0.3982 359.7262 15.25406219153126
HORS 1                  
1 57188U 23091Y   26094.86926586  .00013233  00000+0  52455-3 0  9990
2 57188  97.5131 158.0995 0008716   0.4308 359.6935 15.25488315153136
VIZARD-METEO (RS38S)    
1 57189U 23091Z   26094.86863620  .00021361  00000+0  65459-3 0  9999
2 57189  97.5143 162.9967 0006488 341.7222  18.3786 15.33794417153442
NANOZOND 1 (RS49S)      
1 57190U 23091AA  26094.80997737  .00576611  13438-3  17131-2 0  9991
2 57190  97.4958 177.4350 0007072 260.4226  99.6248 15.92439450154405
SITRO-AIS 6 (CHIRKIN)   
1 57192U 23091AC  26094.83568513  .00009223  00000+0  37345-3 0  9999
2 57192  97.5130 157.5920 0012289  13.0663 347.0891 15.24838613153104
SITRO-AIS 8 (ANOKHIN)   
1 57193U 23091AD  26094.82675172  .00016619  00000+0  56909-3 0  9993
2 57193  97.5116 159.4067 0010496   6.8540 353.2842 15.30244795153221
SITRO-AIS 7 (FARTUSHNIY)
1 57194U 23091AE  26094.82473196  .00008592  00000+0  35099-3 0  9994
2 57194  97.5128 157.4412 0012203  14.0463 346.1112 15.24563932153096
